ONEWEB-0189             
1 48217U 21031H   26171.36007946 -.00000181  00000+0 -52328-3 0  9995
2 48217  87.8971 289.0654 0002097 109.9125 250.2231 13.14503177248644
ONEWEB-0196             
1 48218U 21031J   26171.33788022  .00000016  00000+0  79503-5 0  9995
2 48218  87.8970 289.0787 0002032 104.3034 255.8322 13.14503016248642
ONEWEB-0183             
1 48219U 21031K   26171.31250775  .00000291  00000+0  75072-3 0  9993
2 48219  87.8967 289.0818 0002049  96.1640 263.9723 13.14503338248735
ONEWEB-0185             
1 48220U 21031L   26171.33866627 -.00000026  00000+0 -10488-3 0  9994
2 48220  87.8976 289.0702 0002380  99.9432 260.1966 13.14502643248665
ONEWEB-0187             
1 48221U 21031M   26171.31870014  .00000290  00000+0  74702-3 0  9998
2 48221  87.8962 289.0895 0002119 103.5073 256.6293 13.14501633248679
ONEWEB-0192             
1 48222U 21031N   26171.36483212 -.00000092  00000+0 -28181-3 0  9996
2 48222  87.8968 289.0709 0001935 103.7396 256.3949 13.14501722248590
ONEWEB-0219             
1 48223U 21031P   26171.34420628 -.00000096  00000+0 -29473-3 0  9996
2 48223  87.8968 289.0667 0002163 102.6143 257.5229 13.14501067248794
ONEWEB-0202             
1 48224U 21031Q   26171.40131714  .00000185  00000+0  46542-3 0  9992
2 48224  87.8972 289.0682 0001981 121.2825 238.8499 13.14502951248781
ONEWEB-0204             
1 48225U 21031R   26171.35927581 -.00001324  00000+0 -36063-2 0  9996
2 48225  87.8974 289.0712 0002108  91.2523 268.8849 13.14507571248674
ONEWEB-0205             
1 48226U 21031S   26171.41081250  .00000029  00000+0  43726-4 0  9993
2 48226  87.8977 289.0541 0002187 104.8734 255.2638 13.14501608248693
ONEWEB-0206             
1 48227U 21031T   26171.38386238  .00000176  00000+0  44033-3 0  9998
2 48227  87.8970 289.0610 0001813  97.9467 262.1868 13.14504032248645
ONEWEB-0182             
1 48228U 21031U   26171.37911167  .00000100  00000+0  23474-3 0  9996
2 48228  87.8968 289.0694 0002073  95.4298 264.7068 13.14503106248853
ONEWEB-0186             
1 48229U 21031V   26171.31409323  .00000270  00000+0  69459-3 0  9998
2 48229  87.8978 289.0733 0002041 102.0432 258.0926 13.14502933248798
ONEWEB-0181             
1 48230U 21031W   26171.36800814 -.00000051  00000+0 -17263-3 0  9990
2 48230  87.8958 289.0913 0002052 105.9206 254.2150 13.14503779248652
ONEWEB-0188             
1 48231U 21031X   26171.40605997  .00000176  00000+0  43948-3 0  9996
2 48231  87.8961 289.0831 0001993 100.7069 259.4285 13.14504350248561
ONEWEB-0220             
1 48232U 21031Y   26171.36958497 -.00000026  00000+0 -10548-3 0  9994
2 48232  87.8974 289.0636 0002276 102.3433 257.7951 13.14502785248827
ONEWEB-0165             
1 48233U 21031Z   26171.39814183  .00000149  00000+0  36830-3 0  9997
2 48233  87.8971 289.0708 0002027 112.0722 248.0623 13.14501700248788
ONEWEB-0199             
1 48234U 21031AA  26171.38228013  .00000165  00000+0  41027-3 0  9990
2 48234  87.8974 289.0598 0001824  95.5704 264.5634 13.14503580248680
ONEWEB-0203             
1 48235U 21031AB  26171.37277038  .00000050  00000+0  10162-3 0  9990
2 48235  87.8973 289.0652 0001801 103.8600 256.2730 13.14502731248697
ONEWEB-0197             
1 48236U 21031AC  26171.34724668 -.00000133  00000+0 -39400-3 0  9994
2 48236  87.8965 289.0560 0002199  96.3729 263.7651 13.14504312248609
ONEWEB-0194             
1 48237U 21031AD  26171.32678247  .00000202  00000+0  51110-3 0  9991
2 48237  87.8970 289.0824 0001693  99.6044 260.5277 13.14502384248777
ONEWEB-0193             
1 48238U 21031AE  26171.34263301 -.00000070  00000+0 -22232-3 0  9993
2 48238  87.8967 289.0696 0001504  96.6721 263.4580 13.14502644248724
ONEWEB-0191             
1 48239U 21031AF  26171.35373823 -.00000241  00000+0 -68363-3 0  9991
2 48239  87.8976 289.0663 0002017  95.3685 264.7675 13.14502932248587
ONEWEB-0195             
1 48240U 21031AG  26171.33074051  .00000159  00000+0  39507-3 0  9996
2 48240  87.8975 289.0716 0002138 111.0517 249.0842 13.14501924248561
ONEWEB-0201             
1 48241U 21031AH  26171.31897073  .00000237  00000+0  60392-3 0  9995
2 48241  87.8965 289.0897 0002243  97.1913 262.9471 13.14504487248796
ONEWEB-0207             
1 48242U 21031AJ  26171.37514402  .00000041  00000+0  76990-4 0  9999
2 48242  87.8971 289.0636 0002204  97.8231 262.3149 13.14503607248713
ONEWEB-0208             
1 48243U 21031AK  26171.35690461 -.00000184  00000+0 -53101-3 0  9996
2 48243  87.8971 289.0737 0002053 111.0126 249.1223 13.14504067248728
ONEWEB-0200             
1 48244U 21031AL  26171.32043385  .00000293  00000+0  75447-3 0  9997
2 48244  87.8977 289.0678 0002005 102.8047 257.3307 13.14502716248640
ONEWEB-0217             
1 48245U 21031AM  26171.33628112  .00000005  00000+0 -22122-4 0  9991
2 48245  87.8975 289.0691 0002008 111.4582 248.6762 13.14501684248592
ONEWEB-0211             
1 48767U 21045A   26171.30775811  .00000061  00000+0  12572-3 0  9999
2 48767  87.9007 258.4594 0002027 120.6238 239.5093 13.16196698244859
