OBJECT_NAME,OBJECT_ID,EPOCH,MEAN_MOTION,ECCENTRICITY,INCLINATION,RA_OF_ASC_NODE,ARG_OF_PERICENTER,MEAN_ANOMALY,EPHEMERIS_TYPE,CLASSIFICATION_TYPE,NORAD_CAT_ID,ELEMENT_SET_NO,REV_AT_EPOCH,BSTAR,MEAN_MOTION_DOT,MEAN_MOTION_DDOT
ONEWEB-0189,2021-031H,2026-06-20T08:38:30.865344,13.14503177,.0002097,87.8971,289.0654,109.9125,250.2231,0,U,48217,999,24864,-.52328E-3,-.181E-5,0
ONEWEB-0196,2021-031J,2026-06-20T08:06:32.851008,13.14503016,.0002032,87.8970,289.0787,104.3034,255.8322,0,U,48218,999,24864,.79503E-5,.16E-6,0
ONEWEB-0183,2021-031K,2026-06-20T07:30:00.669600,13.14503338,.0002049,87.8967,289.0818,96.1640,263.9723,0,U,48219,999,24873,.75072E-3,.291E-5,0
ONEWEB-0185,2021-031L,2026-06-20T08:07:40.765728,13.14502643,.000238,87.8976,289.0702,99.9432,260.1966,0,U,48220,999,24866,-.10488E-3,-.26E-6,0
ONEWEB-0187,2021-031M,2026-06-20T07:38:55.692096,13.14501633,.0002119,87.8962,289.0895,103.5073,256.6293,0,U,48221,999,24867,.74702E-3,.29E-5,0
ONEWEB-0192,2021-031N,2026-06-20T08:45:21.495168,13.14501722,.0001935,87.8968,289.0709,103.7396,256.3949,0,U,48222,999,24859,-.28181E-3,-.92E-6,0
ONEWEB-0219,2021-031P,2026-06-20T08:15:39.422592,13.14501067,.0002163,87.8968,289.0667,102.6143,257.5229,0,U,48223,999,24879,-.29473E-3,-.96E-6,0
ONEWEB-0202,2021-031Q,2026-06-20T09:37:53.800896,13.14502951,.0001981,87.8972,289.0682,121.2825,238.8499,0,U,48224,999,24878,.46542E-3,.185E-5,0
ONEWEB-0204,2021-031R,2026-06-20T08:37:21.429984,13.14507571,.0002108,87.8974,289.0712,91.2523,268.8849,0,U,48225,999,24867,-.36063E-2,-.1324E-4,0
ONEWEB-0205,2021-031S,2026-06-20T09:51:34.200000,13.14501608,.0002187,87.8977,289.0541,104.8734,255.2638,0,U,48226,999,24869,.43726E-4,.29E-6,0
ONEWEB-0206,2021-031T,2026-06-20T09:12:45.709632,13.14504032,.0001813,87.8970,289.0610,97.9467,262.1868,0,U,48227,999,24864,.44033E-3,.176E-5,0
ONEWEB-0182,2021-031U,2026-06-20T09:05:55.248288,13.14503106,.0002073,87.8968,289.0694,95.4298,264.7068,0,U,48228,999,24885,.23474E-3,.1E-5,0
ONEWEB-0186,2021-031V,2026-06-20T07:32:17.655072,13.14502933,.0002041,87.8978,289.0733,102.0432,258.0926,0,U,48229,999,24879,.69459E-3,.27E-5,0
ONEWEB-0181,2021-031W,2026-06-20T08:49:55.903296,13.14503779,.0002052,87.8958,289.0913,105.9206,254.2150,0,U,48230,999,24865,-.17263E-3,-.51E-6,0
ONEWEB-0188,2021-031X,2026-06-20T09:44:43.581408,13.14504350,.0001993,87.8961,289.0831,100.7069,259.4285,0,U,48231,999,24856,.43948E-3,.176E-5,0
ONEWEB-0220,2021-031Y,2026-06-20T08:52:12.141408,13.14502785,.0002276,87.8974,289.0636,102.3433,257.7951,0,U,48232,999,24882,-.10548E-3,-.26E-6,0
ONEWEB-0165,2021-031Z,2026-06-20T09:33:19.454112,13.14501700,.0002027,87.8971,289.0708,112.0722,248.0623,0,U,48233,999,24878,.3683E-3,.149E-5,0
ONEWEB-0199,2021-031AA,2026-06-20T09:10:29.003232,13.14503580,.0001824,87.8974,289.0598,95.5704,264.5634,0,U,48234,999,24868,.41027E-3,.165E-5,0
ONEWEB-0203,2021-031AB,2026-06-20T08:56:47.360832,13.14502731,.0001801,87.8973,289.0652,103.8600,256.2730,0,U,48235,999,24869,.10162E-3,.5E-6,0
ONEWEB-0197,2021-031AC,2026-06-20T08:20:02.113152,13.14504312,.0002199,87.8965,289.0560,96.3729,263.7651,0,U,48236,999,24860,-.394E-3,-.133E-5,0
ONEWEB-0194,2021-031AD,2026-06-20T07:50:34.005408,13.14502384,.0001693,87.8970,289.0824,99.6044,260.5277,0,U,48237,999,24877,.5111E-3,.202E-5,0
ONEWEB-0193,2021-031AE,2026-06-20T08:13:23.492064,13.14502644,.0001504,87.8967,289.0696,96.6721,263.4580,0,U,48238,999,24872,-.22232E-3,-.7E-6,0
ONEWEB-0191,2021-031AF,2026-06-20T08:29:22.983072,13.14502932,.0002017,87.8976,289.0663,95.3685,264.7675,0,U,48239,999,24858,-.68363E-3,-.241E-5,0
ONEWEB-0195,2021-031AG,2026-06-20T07:56:15.980064,13.14501924,.0002138,87.8975,289.0716,111.0517,249.0842,0,U,48240,999,24856,.39507E-3,.159E-5,0
ONEWEB-0201,2021-031AH,2026-06-20T07:39:19.071072,13.14504487,.0002243,87.8965,289.0897,97.1913,262.9471,0,U,48241,999,24879,.60392E-3,.237E-5,0
ONEWEB-0207,2021-031AJ,2026-06-20T09:00:12.443328,13.14503607,.0002204,87.8971,289.0636,97.8231,262.3149,0,U,48242,999,24871,.7699E-4,.41E-6,0
ONEWEB-0208,2021-031AK,2026-06-20T08:33:56.558304,13.14504067,.0002053,87.8971,289.0737,111.0126,249.1223,0,U,48243,999,24872,-.53101E-3,-.184E-5,0
ONEWEB-0200,2021-031AL,2026-06-20T07:41:25.484640,13.14502716,.0002005,87.8977,289.0678,102.8047,257.3307,0,U,48244,999,24864,.75447E-3,.293E-5,0
ONEWEB-0217,2021-031AM,2026-06-20T08:04:14.688768,13.14501684,.0002008,87.8975,289.0691,111.4582,248.6762,0,U,48245,999,24859,-.22122E-4,.5E-7,0
ONEWEB-0211,2021-045A,2026-06-20T07:23:10.300704,13.16196698,.0002027,87.9007,258.4594,120.6238,239.5093,0,U,48767,999,24485,.12572E-3,.61E-6,0
